{
"type": "FeatureCollection",
"name": "jalur_fmipa",
"crs": { "type": "name", "properties": { "name": "urn:ogc:def:crs:OGC:1.3:CRS84" } },
"features": [
{ "type": "Feature", "properties": { "fid": 1 }, "geometry": { "type": "LineString", "coordinates": [ [ 7183.168366870378122, -4529.945474193735208 ], [ 7308.149966989567474, -4522.560197823055205 ] ] } },
{ "type": "Feature", "properties": { "fid": 2 }, "geometry": { "type": "LineString", "coordinates": [ [ 7308.149966989567474, -4522.560197823055205 ], [ 7320.080028819129438, -4712.873088913640458 ] ] } },
{ "type": "Feature", "properties": { "fid": 3 }, "geometry": { "type": "LineString", "coordinates": [ [ 7320.080028819129438, -4712.873088913640458 ], [ 7441.653039844158229, -4835.582296303389739 ], [ 7639.351207305421667, -4849.216652680028346 ], [ 7696.161025541417075, -4811.722172644271268 ], [ 7702.978203729736379, -4654.92707431292456 ], [ 7913.174531202918843, -4431.096390463103489 ], [ 7308.149966989567474, -4522.560197823055205 ] ] } },
{ "type": "Feature", "properties": { "fid": 4 }, "geometry": { "type": "LineString", "coordinates": [ [ 7696.161025541417075, -4811.722172644271268 ], [ 7912.038334838200171, -4637.884128842126302 ], [ 8259.714422442491923, -4343.609270379671216 ], [ 8544.899709987183087, -4184.541779318884437 ], [ 8547.172102716624067, -3773.238695290278883 ], [ 8531.26535361054448, -3093.793269187776332 ], [ 8260.850618807207866, -3146.058301964892053 ], [ 8099.510735016981016, -3314.215363943437751 ], [ 8038.156131322106376, -3564.178564181816455 ], [ 8001.797847651068878, -3964.119684563222563 ], [ 7913.174531202918843, -4431.096390463103489 ], [ 7701.842007365014979, -4175.452208401125063 ], [ 7338.259170654645459, -3848.227655361792131 ], [ 7260.99781785369214, -3768.693909831399196 ], [ 7063.299650392428703, -3850.500048091232202 ], [ 7133.743825005062718, -3948.212935457143885 ], [ 7158.74014502890077, -4120.914782894569726 ], [ 7274.632174230330747, -4279.982273955355595 ], [ 7308.149966989567474, -4522.560197823055205 ] ] } },
{ "type": "Feature", "properties": { "fid": 5 }, "geometry": { "type": "LineString", "coordinates": [ [ 7274.632174230330747, -4279.982273955355595 ], [ 6926.956086626040815, -4255.554052113879152 ], [ 6531.559751703513939, -4237.374910278360403 ], [ 6344.087351524730366, -4070.35404466453474 ], [ 6534.968340797673591, -4093.077971958932721 ], [ 6531.559751703513939, -4239.647303007800474 ] ] } },
{ "type": "Feature", "properties": { "fid": 6 }, "geometry": { "type": "LineString", "coordinates": [ [ 6534.968340797673591, -4093.077971958932721 ], [ 6786.067737400772785, -3854.476735367753008 ], [ 6870.146268390045407, -3770.398204378479932 ], [ 7063.299650392428703, -3850.500048091232202 ] ] } },
{ "type": "Feature", "properties": { "fid": 7 }, "geometry": { "type": "LineString", "coordinates": [ [ 6870.146268390045407, -3770.398204378479932 ], [ 6790.612522859652017, -3578.381018740815307 ], [ 6870.146268390044497, -3377.274262185392672 ], [ 7059.891061298269051, -3297.740516654999283 ], [ 7260.99781785369214, -3373.86567309123302 ], [ 7334.850581560485807, -3576.108626011375691 ], [ 7260.99781785369214, -3768.693909831399196 ] ] } },
{ "type": "Feature", "properties": { "fid": 8 }, "geometry": { "type": "LineString", "coordinates": [ [ 7334.850581560485807, -3576.108626011375691 ], [ 7450.742610761914875, -3577.244822376095726 ], [ 8038.156131322106376, -3564.178564181816455 ] ] } },
{ "type": "Feature", "properties": { "fid": 9 }, "geometry": { "type": "LineString", "coordinates": [ [ 8531.26535361054448, -3093.793269187776332 ], [ 8530.12915724582308, -2163.816544664535286 ], [ 5982.776907543799098, -2068.376050028063219 ], [ 5996.411263920437705, -2286.525752054284567 ], [ 6069.127831262511791, -2386.511032149636321 ], [ 6269.09839145321439, -2770.545403424963752 ], [ 6528.151162609352468, -2781.907367072162742 ], [ 7718.884952835811418, -2711.463192459528727 ], [ 7898.403978461556108, -2725.097548836167334 ], [ 7996.116865827468246, -2852.351541684796757 ], [ 8099.510735016981016, -3314.215363943437751 ] ] } },
{ "type": "Feature", "properties": { "fid": 10 }, "geometry": { "type": "LineString", "coordinates": [ [ 7996.116865827468246, -2852.351541684796757 ], [ 7798.418698366204808, -2900.071789003032791 ], [ 7343.940152478243363, -3302.28530211387897 ], [ 7260.99781785369214, -3373.86567309123302 ] ] } },
{ "type": "Feature", "properties": { "fid": 11 }, "geometry": { "type": "LineString", "coordinates": [ [ 6870.146268390044497, -3377.274262185392672 ], [ 6790.612522859650198, -3285.242356643080257 ], [ 6537.240733527111843, -2959.153999968467815 ], [ 6528.151162609352468, -2781.907367072162742 ] ] } },
{ "type": "Feature", "properties": { "fid": 12 }, "geometry": { "type": "LineString", "coordinates": [ [ 6269.09839145321439, -2770.545403424963752 ], [ 6328.18060241864805, -3217.070574759884494 ], [ 6407.71434794904053, -3553.38469871697589 ], [ 6671.31190456405875, -3573.836233281934256 ], [ 6790.612522859652017, -3578.381018740815307 ] ] } },
{ "type": "Feature", "properties": { "fid": 13 }, "geometry": { "type": "LineString", "coordinates": [ [ 6407.71434794904053, -3553.38469871697589 ], [ 5875.974449260123947, -3548.839913258097113 ], [ 5873.702056530683876, -3871.519680838549903 ], [ 5857.795307424605198, -3973.777353663341273 ] ] } },
{ "type": "Feature", "properties": { "fid": 14 }, "geometry": { "type": "LineString", "coordinates": [ [ 6344.087351524730366, -4070.35404466453474 ], [ 6337.270173336404696, -3923.784713615665169 ], [ 5873.702056530683876, -3871.519680838549903 ] ] } },
{ "type": "Feature", "properties": { "fid": 15 }, "geometry": { "type": "LineString", "coordinates": [ [ 6328.18060241864805, -3217.070574759884494 ], [ 5923.694696578359071, -3201.163825653806725 ], [ 5923.694696578359071, -3157.988363794450379 ], [ 5019.282390261316323, -3155.715971065010308 ], [ 5023.827175720195555, -2805.76749073127985 ], [ 4214.855364039623964, -2810.312276190159537 ] ] } },
{ "type": "Feature", "properties": { "fid": 16 }, "geometry": { "type": "LineString", "coordinates": [ [ 5873.702056530683876, -3871.519680838549903 ], [ 4997.694659331637922, -3879.473055391588787 ], [ 4963.608768390040495, -4365.765099491707588 ], [ 4965.881161119480566, -4406.668168621624318 ], [ 4543.216113443676477, -4408.940561351064389 ], [ 4284.163342287538399, -4399.850990433305014 ], [ 4029.655356590279553, -4402.123383162745085 ], [ 4029.655356590279553, -4111.257113794449651 ], [ 4027.382963860839936, -3781.760168025677558 ], [ 4034.20014204915924, -3711.315993413043543 ], [ 3818.322832752377508, -3075.046029169897338 ], [ 3820.595225481818034, -2709.190799730087747 ], [ 3843.319152776216015, -2002.476660874307527 ], [ 5034.05294300267542, -2032.017766357025266 ], [ 5982.776907543799098, -2068.376050028063219 ] ] } },
{ "type": "Feature", "properties": { "fid": 17 }, "geometry": { "type": "LineString", "coordinates": [ [ 5034.05294300267542, -2032.017766357025266 ], [ 5022.690979355470517, -2611.477912364178792 ], [ 5023.827175720195555, -2805.76749073127985 ] ] } },
{ "type": "Feature", "properties": { "fid": 18 }, "geometry": { "type": "LineString", "coordinates": [ [ 4284.163342287538399, -4399.850990433305014 ], [ 4310.295858676092394, -4107.848524700293638 ], [ 4335.292178699930446, -3885.154037215192147 ], [ 4396.646782394805086, -3885.154037215192147 ], [ 4371.650462370967034, -3696.545440671688084 ], [ 4034.20014204915924, -3711.315993413043543 ] ] } },
{ "type": "Feature", "properties": { "fid": 19 }, "geometry": { "type": "LineString", "coordinates": [ [ 4396.646782394805086, -3885.154037215192147 ], [ 4548.897095267271652, -3885.154037215192147 ], [ 4546.624702537832491, -4337.360190373714431 ], [ 4543.216113443676477, -4408.940561351064389 ] ] } },
{ "type": "Feature", "properties": { "fid": 20 }, "geometry": { "type": "LineString", "coordinates": [ [ 4548.897095267271652, -3885.154037215192147 ], [ 4544.35230980839242, -3514.754022316503324 ], [ 4546.624702537832491, -3346.596960337957626 ], [ 4233.034505875139075, -3351.141745796837313 ] ] } },
{ "type": "Feature", "properties": { "fid": 21 }, "geometry": { "type": "LineString", "coordinates": [ [ 4546.624702537832491, -3346.596960337957626 ], [ 5021.554782990751846, -3348.869353067397242 ], [ 5021.554782990751846, -3512.481629587063708 ], [ 4997.694659331637922, -3879.473055391588787 ] ] } },
{ "type": "Feature", "properties": { "fid": 22 }, "geometry": { "type": "LineString", "coordinates": [ [ 4548.897095267271652, -3885.154037215192147 ], [ 4997.694659331637922, -3879.473055391588787 ] ] } }
]
}
